HULIANWANG DIGUI-88     
1 65996U 25231B   26154.49078310 -.00000069  00000+0  11869-3 0  9991
2 65996  49.9977 225.0188 0000911 185.9653 174.1209 13.29329041 31064
HULIANWANG DIGUI-89     
1 65997U 25231C   26154.47414329 -.00000068  00000+0  11972-3 0  9998
2 65997  49.9955 224.8915 0000906 189.4347 170.6508 13.29327989 31061
HULIANWANG DIGUI-90     
1 65998U 25231D   26154.46580361 -.00000072  00000+0  11281-3 0  9996
2 65998  49.9984 224.9013 0000915 187.4042 172.6817 13.29326501 31068
HULIANWANG DIGUI-91     
1 65999U 25231E   26154.53264222 -.00000074  00000+0  10802-3 0  9990
2 65999  50.0003 224.6249 0000901 187.6667 172.4192 13.29327172 31072
HULIANWANG DIGUI-92     
1 66000U 25231F   26154.52428112 -.00000072  00000+0  11196-3 0  9998
2 66000  50.0044 224.6541 0000896 189.8389 170.2466 13.29329137 31077
HULIANWANG DIGUI-93     
1 66001U 25231G   26154.50751822 -.00000076  00000+0  10266-3 0  9995
2 66001  50.0011 224.5119 0000908 186.7831 173.3029 13.29328100 31072
HULIANWANG DIGUI-94     
1 66002U 25231H   26154.51595369 -.00000075  00000+0  10560-3 0  9995
2 66002  50.0050 224.6264 0000929 187.7945 172.2912 13.29326089 31071
HULIANWANG DIGUI-95     
1 66003U 25231J   26154.49934605 -.00000077  00000+0  10129-3 0  9996
2 66003  50.0023 224.4913 0000854 188.0772 172.0087 13.29332355 31074
STARLINK-34849          
1 66005U 25232A   26154.07067591  .00027667  00000+0  82651-3 0  9996
2 66005  53.1611  66.9141 0001537  64.8129 295.3033 15.34417056 36504
STARLINK-35336          
1 66006U 25232B   26153.09383468  .00027031  00000+0  92468-3 0  9994
2 66006  53.1600  71.4768 0001723  90.0068 270.1130 15.30086244 36358
STARLINK-35196          
1 66007U 25232C   26154.42016753  .00037186  00000+0  12587-2 0  9998
2 66007  53.1602  65.5325 0001122 122.9761 237.1348 15.30269784 36550
STARLINK-35236          
1 66008U 25232D   26154.42159780  .00027176  00000+0  81301-3 0  9996
2 66008  53.1603  65.5407 0001125  85.7273 274.3858 15.34381785 36548
STARLINK-35276          
1 66009U 25232E   26153.00005787  .00003247  00000+0  12178-3 0  9996
2 66009  53.1588  72.2695 0001284  73.7338 309.1877 15.30179390  5884
STARLINK-35297          
1 66010U 25232F   26154.40477228  .00025183  00000+0  75334-3 0  9992
2 66010  53.1609  65.4409 0002766  41.1757 318.9454 15.34424818 36556
STARLINK-35256          
1 66011U 25232G   26153.17285475  .00026277  00000+0  89631-3 0  9997
2 66011  53.1601  71.2601 0001346  65.4993 294.6148 15.30195720 36375
STARLINK-35293          
1 66012U 25232H   26153.03589406  .00021893  00000+0  74882-3 0  9995
2 66012  53.1605  71.8225 0001257  91.2333 268.8812 15.30212426 36356
STARLINK-35307          
1 66013U 25232J   26154.50025463  .00014866  00000+0  46265-3 0  9993
2 66013  53.1597  65.3070 0001077 106.3208 262.1141 15.33534741  5675
STARLINK-35395          
1 66014U 25232K   26152.07516970  .00022817  00000+0  78098-3 0  9996
2 66014  53.1599  76.4938 0000947  68.8593 291.2509 15.30164683 36203
STARLINK-34622          
1 66015U 25232L   26152.92557851  .00031715  00000+0  94597-3 0  9993
2 66015  53.1613  72.5581 0001053 102.7239 257.3881 15.34395540 36327
STARLINK-35243          
1 66016U 25232M   26154.50025463  .00023709  00000+0  72971-3 0  9995
2 66016  53.1588  65.5098 0001151  90.3786 173.4114 15.33558635  5847
STARLINK-35398          
1 66017U 25232N   26154.41528947  .00026758  00000+0  79906-3 0  9993
2 66017  53.1620  65.4995 0001011 128.6657 231.4436 15.34447650 36567
STARLINK-35376          
1 66018U 25232P   26154.00002315 -.00011502  00000+0 -32994-3 0  9994
2 66018  53.1595  67.7654 0001054  89.2689 332.9207 15.34387563  5880
STARLINK-35382          
1 66019U 25232Q   26152.22794886  .00021213  00000+0  72579-3 0  9999
2 66019  53.1594  76.0237 0000618 111.3490 248.7577 15.30222191 36229
STARLINK-35430          
1 66020U 25232R   26152.20896269  .00026536  00000+0  90589-3 0  9991
2 66020  53.1594  75.9040 0001475  80.8453 279.2715 15.30162574 36201
STARLINK-35432          
1 66021U 25232S   26154.30535686  .00040365  00000+0  13640-2 0  9996
2 66021  53.1593  66.2422 0001431  44.1028 316.0087 15.30284441 36548
STARLINK-35340          
1 66022U 25232T   26154.42332528  .00018536  00000+0  63700-3 0  9998
2 66022  53.1613  65.5473 0001795 140.7886 219.3245 15.30168412 36560
STARLINK-35394          
1 66023U 25232U   26154.22098845  .00041962  00000+0  14152-2 0  9993
2 66023  53.1614  66.4188 0001312  81.1787 278.9362 15.30330037 36530
STARLINK-35410          
1 66024U 25232V   26154.50025463  .00070825  00000+0  21021-2 0  9994
2 66024  53.1596  64.9408 0002853 147.4571  43.9320 15.34180298  5846
STARLINK-35280          
1 66025U 25232W   26153.03905627  .00037157  00000+0  12598-2 0  9991
2 66025  53.1601  71.8399 0001026 108.3370 251.7743 15.30216552 36351
STARLINK-34812          
1 66026U 25232X   26154.29553847  .00028666  00000+0  85560-3 0  9999
2 66026  53.1607  66.1744 0001169  76.1689 283.9444 15.34425663 36536
