OBJECT_NAME,OBJECT_ID,EPOCH,MEAN_MOTION,ECCENTRICITY,INCLINATION,RA_OF_ASC_NODE,ARG_OF_PERICENTER,MEAN_ANOMALY,EPHEMERIS_TYPE,CLASSIFICATION_TYPE,NORAD_CAT_ID,ELEMENT_SET_NO,REV_AT_EPOCH,BSTAR,MEAN_MOTION_DOT,MEAN_MOTION_DDOT
HULIANWANG DIGUI-88,2025-231B,2026-06-03T11:46:43.659840,13.29329041,.0000911,49.9977,225.0188,185.9653,174.1209,0,U,65996,999,3106,.11869E-3,-.69E-6,0
HULIANWANG DIGUI-89,2025-231C,2026-06-03T11:22:45.980256,13.29327989,.0000906,49.9955,224.8915,189.4347,170.6508,0,U,65997,999,3106,.11972E-3,-.68E-6,0
HULIANWANG DIGUI-90,2025-231D,2026-06-03T11:10:45.431904,13.29326501,.0000915,49.9984,224.9013,187.4042,172.6817,0,U,65998,999,3106,.11281E-3,-.72E-6,0
HULIANWANG DIGUI-91,2025-231E,2026-06-03T12:47:00.287808,13.29327172,.0000901,50.0003,224.6249,187.6667,172.4192,0,U,65999,999,3107,.10802E-3,-.74E-6,0
HULIANWANG DIGUI-92,2025-231F,2026-06-03T12:34:57.888768,13.29329137,.0000896,50.0044,224.6541,189.8389,170.2466,0,U,66000,999,3107,.11196E-3,-.72E-6,0
HULIANWANG DIGUI-93,2025-231G,2026-06-03T12:10:49.574208,13.29328100,.0000908,50.0011,224.5119,186.7831,173.3029,0,U,66001,999,3107,.10266E-3,-.76E-6,0
HULIANWANG DIGUI-94,2025-231H,2026-06-03T12:22:58.398816,13.29326089,.0000929,50.0050,224.6264,187.7945,172.2912,0,U,66002,999,3107,.1056E-3,-.75E-6,0
HULIANWANG DIGUI-95,2025-231J,2026-06-03T11:59:03.498720,13.29332355,.0000854,50.0023,224.4913,188.0772,172.0087,0,U,66003,999,3107,.10129E-3,-.77E-6,0
STARLINK-34849,2025-232A,2026-06-03T01:41:46.398624,15.34417056,.00015374,53.1611,66.9141,64.8129,295.3033,0,U,66005,999,3650,.8265129E-3,.27667E-3,0
STARLINK-35336,2025-232B,2026-06-02T02:15:07.316352,15.30086244,.0001723,53.1600,71.4768,90.0068,270.1130,0,U,66006,999,3635,.92468203E-3,.27031E-3,0
STARLINK-35196,2025-232C,2026-06-03T10:05:02.474592,15.30269784,.0001122,53.1602,65.5325,122.9761,237.1348,0,U,66007,999,3655,.12587E-2,.37186E-3,0
STARLINK-35236,2025-232D,2026-06-03T10:07:06.049920,15.34381785,.0001125,53.1603,65.5407,85.7273,274.3858,0,U,66008,999,3654,.81301E-3,.27176E-3,0
STARLINK-35276,2025-232E,2026-06-02T00:00:04.999968,15.30179390,.00012843,53.1588,72.2695,73.7338,309.1877,0,U,66009,999,588,.12178226E-3,.3247E-4,0
STARLINK-35297,2025-232F,2026-06-03T09:42:52.324992,15.34424818,.0002766,53.1609,65.4409,41.1757,318.9454,0,U,66010,999,3655,.75334E-3,.25183E-3,0
STARLINK-35256,2025-232G,2026-06-02T04:08:54.650400,15.30195720,.00013461,53.1601,71.2601,65.4993,294.6148,0,U,66011,999,3637,.89630516E-3,.26277E-3,0
STARLINK-35293,2025-232H,2026-06-02T00:51:41.246784,15.30212426,.00012576,53.1605,71.8225,91.2333,268.8812,0,U,66012,999,3635,.74882026E-3,.21893E-3,0
STARLINK-35307,2025-232J,2026-06-03T12:00:22.000032,15.33534741,.0001077,53.1597,65.3070,106.3208,262.1141,0,U,66013,999,567,.46265E-3,.14866E-3,0
STARLINK-35395,2025-232K,2026-06-01T01:48:14.662080,15.30164683,.00009479,53.1599,76.4938,68.8593,291.2509,0,U,66014,999,3620,.78097994E-3,.22817E-3,0
STARLINK-34622,2025-232L,2026-06-01T22:12:49.983264,15.34395540,.00010533,53.1613,72.5581,102.7239,257.3881,0,U,66015,999,3632,.94596597E-3,.31715E-3,0
STARLINK-35243,2025-232M,2026-06-03T12:00:22.000032,15.33558635,.0001151,53.1588,65.5098,90.3786,173.4114,0,U,66016,999,584,.72971E-3,.23709E-3,0
STARLINK-35398,2025-232N,2026-06-03T09:58:01.010208,15.34447650,.0001011,53.1620,65.4995,128.6657,231.4436,0,U,66017,999,3656,.79906E-3,.26758E-3,0
STARLINK-35376,2025-232P,2026-06-03T00:00:02.000160,15.34387563,.0001054,53.1595,67.7654,89.2689,332.9207,0,U,66018,999,588,-.32993996E-3,-.11502E-3,0
STARLINK-35382,2025-232Q,2026-06-01T05:28:14.781504,15.30222191,.0000618,53.1594,76.0237,111.3490,248.7577,0,U,66019,999,3622,.72578579E-3,.21213E-3,0
STARLINK-35430,2025-232R,2026-06-01T05:00:54.376416,15.30162574,.00014751,53.1594,75.9040,80.8453,279.2715,0,U,66020,999,3620,.90589448E-3,.26536E-3,0
STARLINK-35432,2025-232S,2026-06-03T07:19:42.832704,15.30284441,.0001431,53.1593,66.2422,44.1028,316.0087,0,U,66021,999,3654,.1364E-2,.40365E-3,0
STARLINK-35340,2025-232T,2026-06-03T10:09:35.304192,15.30168412,.0001795,53.1613,65.5473,140.7886,219.3245,0,U,66022,999,3656,.637E-3,.18536E-3,0
STARLINK-35394,2025-232U,2026-06-03T05:18:13.402080,15.30330037,.0001312,53.1614,66.4188,81.1787,278.9362,0,U,66023,999,3653,.14152E-2,.41962E-3,0
STARLINK-35410,2025-232V,2026-06-03T12:00:22.000032,15.34180298,.0002853,53.1596,64.9408,147.4571,43.9320,0,U,66024,999,584,.21021E-2,.70825E-3,0
STARLINK-35280,2025-232W,2026-06-02T00:56:14.461728,15.30216552,.00010267,53.1601,71.8399,108.3370,251.7743,0,U,66025,999,3635,.1259767E-2,.37157E-3,0
STARLINK-34812,2025-232X,2026-06-03T07:05:34.523808,15.34425663,.0001169,53.1607,66.1744,76.1689,283.9444,0,U,66026,999,3653,.8556E-3,.28666E-3,0
